LEMUR-2-GREENBERG       
1 42837U 17042N   26068.46200528  .00019778  00000+0  72539-3 0  9997
2 42837  97.3781 249.8007 0009157   4.0119 356.1192 15.27971352473146
STARLINK-31303          
1 59239U 24049J   26068.51233289 -.00000356  00000+0 -34210-5 0  9992
2 59239  43.0029 133.6902 0001716 276.0007  84.0649 15.27569977112507
