[{"OBJECT_NAME":"LEMUR-2-GREENBERG","OBJECT_ID":"2017-042N","EPOCH":"2026-03-09T11:05:17.256192","MEAN_MOTION":15.27971352,"ECCENTRICITY":0.00091572,"INCLINATION":97.3781,"RA_OF_ASC_NODE":249.8007,"ARG_OF_PERICENTER":4.0119,"MEAN_ANOMALY":356.1192,"EPHEMERIS_TYPE":0,"CLASSIFICATION_TYPE":"U","NORAD_CAT_ID":42837,"ELEMENT_SET_NO":999,"REV_AT_EPOCH":47314,"BSTAR":0.00072539172,"MEAN_MOTION_DOT":0.00019778,"MEAN_MOTION_DDOT":0},{"OBJECT_NAME":"STARLINK-31303","OBJECT_ID":"2024-049J","EPOCH":"2026-03-09T12:17:45.561696","MEAN_MOTION":15.27569977,"ECCENTRICITY":0.00017162,"INCLINATION":43.0029,"RA_OF_ASC_NODE":133.6902,"ARG_OF_PERICENTER":276.0007,"MEAN_ANOMALY":84.0649,"EPHEMERIS_TYPE":0,"CLASSIFICATION_TYPE":"U","NORAD_CAT_ID":59239,"ELEMENT_SET_NO":999,"REV_AT_EPOCH":11250,"BSTAR":-3.420973e-6,"MEAN_MOTION_DOT":-3.56e-6,"MEAN_MOTION_DDOT":0}]
